[{"OBJECT_NAME":"INTELSAT 25 (IS-25)","OBJECT_ID":"2008-034A","EPOCH":"2026-03-28T07:47:23.120160","MEAN_MOTION":1.00288696,"ECCENTRICITY":0.00032419,"INCLINATION":2.4997,"RA_OF_ASC_NODE":81.2782,"ARG_OF_PERICENTER":253.2645,"MEAN_ANOMALY":296.5474,"EPHEMERIS_TYPE":0,"CLASSIFICATION_TYPE":"U","NORAD_CAT_ID":33153,"ELEMENT_SET_NO":999,"REV_AT_EPOCH":6488,"BSTAR":0,"MEAN_MOTION_DOT":-2.4e-6,"MEAN_MOTION_DDOT":0},{"OBJECT_NAME":"GALAXY 19 (G-19)","OBJECT_ID":"2008-045A","EPOCH":"2026-03-28T12:36:47.803392","MEAN_MOTION":1.00271917,"ECCENTRICITY":0.0002766,"INCLINATION":0.0185,"RA_OF_ASC_NODE":238.1791,"ARG_OF_PERICENTER":123.4909,"MEAN_ANOMALY":276.4665,"EPHEMERIS_TYPE":0,"CLASSIFICATION_TYPE":"U","NORAD_CAT_ID":33376,"ELEMENT_SET_NO":999,"REV_AT_EPOCH":6409,"BSTAR":0,"MEAN_MOTION_DOT":-1.59e-6,"MEAN_MOTION_DDOT":0},{"OBJECT_NAME":"FM-5","OBJECT_ID":"2009-034A","EPOCH":"2026-03-28T12:39:55.003680","MEAN_MOTION":1.00272321,"ECCENTRICITY":7.545e-5,"INCLINATION":0.029,"RA_OF_ASC_NODE":260.2268,"ARG_OF_PERICENTER":349.4591,"MEAN_ANOMALY":40.0752,"EPHEMERIS_TYPE":0,"CLASSIFICATION_TYPE":"U","NORAD_CAT_ID":35493,"ELEMENT_SET_NO":999,"REV_AT_EPOCH":4583,"BSTAR":0,"MEAN_MOTION_DOT":-2.2e-6,"MEAN_MOTION_DDOT":0},{"OBJECT_NAME":"INTELSAT 14 (IS-14)","OBJECT_ID":"2009-064A","EPOCH":"2026-03-28T11:08:56.753664","MEAN_MOTION":1.00271414,"ECCENTRICITY":0.0002419,"INCLINATION":0.0179,"RA_OF_ASC_NODE":101.6336,"ARG_OF_PERICENTER":263.9733,"MEAN_ANOMALY":302.5131,"EPHEMERIS_TYPE":0,"CLASSIFICATION_TYPE":"U","NORAD_CAT_ID":36097,"ELEMENT_SET_NO":999,"REV_AT_EPOCH":5979,"BSTAR":0,"MEAN_MOTION_DOT":-2.93e-6,"MEAN_MOTION_DDOT":0},{"OBJECT_NAME":"INTELSAT 15 (IS-15)","OBJECT_ID":"2009-067A","EPOCH":"2026-03-28T13:42:21.794112","MEAN_MOTION":1.00271302,"ECCENTRICITY":0.00022826,"INCLINATION":0.0165,"RA_OF_ASC_NODE":107.673,"ARG_OF_PERICENTER":259.1446,"MEAN_ANOMALY":109.9081,"EPHEMERIS_TYPE":0,"CLASSIFICATION_TYPE":"U","NORAD_CAT_ID":36106,"ELEMENT_SET_NO":999,"REV_AT_EPOCH":4042,"BSTAR":0,"MEAN_MOTION_DOT":-2.05e-6,"MEAN_MOTION_DDOT":0},{"OBJECT_NAME":"DIRECTV 12","OBJECT_ID":"2009-075A","EPOCH":"2026-03-28T12:15:38.523456","MEAN_MOTION":1.00271645,"ECCENTRICITY":3.25e-5,"INCLINATION":0.0423,"RA_OF_ASC_NODE":7.0527,"ARG_OF_PERICENTER":359.1957,"MEAN_ANOMALY":260.8473,"EPHEMERIS_TYPE":0,"CLASSIFICATION_TYPE":"U","NORAD_CAT_ID":36131,"ELEMENT_SET_NO":999,"REV_AT_EPOCH":4574,"BSTAR":0,"MEAN_MOTION_DOT":-1.23e-6,"MEAN_MOTION_DDOT":0},{"OBJECT_NAME":"INTELSAT 16 (IS-16)","OBJECT_ID":"2010-006A","EPOCH":"2026-03-28T12:42:39.740832","MEAN_MOTION":1.00271451,"ECCENTRICITY":0.00019091,"INCLINATION":0.0262,"RA_OF_ASC_NODE":82.7342,"ARG_OF_PERICENTER":293.0107,"MEAN_ANOMALY":284.6554,"EPHEMERIS_TYPE":0,"CLASSIFICATION_TYPE":"U","NORAD_CAT_ID":36397,"ELEMENT_SET_NO":999,"REV_AT_EPOCH":5884,"BSTAR":0,"MEAN_MOTION_DOT":-2.64e-6,"MEAN_MOTION_DDOT":0},{"OBJECT_NAME":"XM-5","OBJECT_ID":"2010-053A","EPOCH":"2026-03-28T12:31:40.793952","MEAN_MOTION":1.00270018,"ECCENTRICITY":0.00039724,"INCLINATION":0.0671,"RA_OF_ASC_NODE":270.7657,"ARG_OF_PERICENTER":268.6212,"MEAN_ANOMALY":79.2646,"EPHEMERIS_TYPE":0,"CLASSIFICATION_TYPE":"U","NORAD_CAT_ID":37185,"ELEMENT_SET_NO":999,"REV_AT_EPOCH":5667,"BSTAR":0,"MEAN_MOTION_DOT":-4.2e-7,"MEAN_MOTION_DDOT":0},{"OBJECT_NAME":"INTELSAT 17 (IS-17)","OBJECT_ID":"2010-065B","EPOCH":"2026-03-28T13:23:13.350624","MEAN_MOTION":1.00271244,"ECCENTRICITY":0.00025299,"INCLINATION":0.0134,"RA_OF_ASC_NODE":190.6963,"ARG_OF_PERICENTER":184.6246,"MEAN_ANOMALY":77.4493,"EPHEMERIS_TYPE":0,"CLASSIFICATION_TYPE":"U","NORAD_CAT_ID":37238,"ELEMENT_SET_NO":999,"REV_AT_EPOCH":5243,"BSTAR":0,"MEAN_MOTION_DOT":-2.1e-7,"MEAN_MOTION_DDOT":0},{"OBJECT_NAME":"INTELSAT 28 (IS-28)","OBJECT_ID":"2011-016A","EPOCH":"2026-03-28T11:12:41.396256","MEAN_MOTION":1.00270968,"ECCENTRICITY":0.0004525,"INCLINATION":1.598,"RA_OF_ASC_NODE":83.6047,"ARG_OF_PERICENTER":284.8744,"MEAN_ANOMALY":313.8625,"EPHEMERIS_TYPE":0,"CLASSIFICATION_TYPE":"U","NORAD_CAT_ID":37392,"ELEMENT_SET_NO":999,"REV_AT_EPOCH":5247,"BSTAR":0,"MEAN_MOTION_DOT":-2.43e-6,"MEAN_MOTION_DDOT":0},{"OBJECT_NAME":"INTELSAT 18 (IS-18)","OBJECT_ID":"2011-056A","EPOCH":"2026-03-28T13:07:38.767008","MEAN_MOTION":1.0027375,"ECCENTRICITY":0.00017686,"INCLINATION":0.0262,"RA_OF_ASC_NODE":255.1063,"ARG_OF_PERICENTER":104.7659,"MEAN_ANOMALY":202.989,"EPHEMERIS_TYPE":0,"CLASSIFICATION_TYPE":"U","NORAD_CAT_ID":37834,"ELEMENT_SET_NO":999,"REV_AT_EPOCH":5300,"BSTAR":0,"MEAN_MOTION_DOT":3.3e-7,"MEAN_MOTION_DDOT":0},{"OBJECT_NAME":"INTELSAT 22 (IS-22)","OBJECT_ID":"2012-011A","EPOCH":"2026-03-28T13:24:58.184064","MEAN_MOTION":1.00271367,"ECCENTRICITY":0.00017129,"INCLINATION":0.0253,"RA_OF_ASC_NODE":118.9518,"ARG_OF_PERICENTER":248.5057,"MEAN_ANOMALY":91.841,"EPHEMERIS_TYPE":0,"CLASSIFICATION_TYPE":"U","NORAD_CAT_ID":38098,"ELEMENT_SET_NO":999,"REV_AT_EPOCH":638,"BSTAR":0,"MEAN_MOTION_DOT":-7.8e-7,"MEAN_MOTION_DDOT":0},{"OBJECT_NAME":"INTELSAT 19 (IS-19)","OBJECT_ID":"2012-030A","EPOCH":"2026-03-28T13:55:38.517888","MEAN_MOTION":1.00269409,"ECCENTRICITY":0.00030897,"INCLINATION":0.0226,"RA_OF_ASC_NODE":179.5653,"ARG_OF_PERICENTER":198.158,"MEAN_ANOMALY":183.1933,"EPHEMERIS_TYPE":0,"CLASSIFICATION_TYPE":"U","NORAD_CAT_ID":38356,"ELEMENT_SET_NO":999,"REV_AT_EPOCH":4964,"BSTAR":0,"MEAN_MOTION_DOT":0,"MEAN_MOTION_DDOT":0},{"OBJECT_NAME":"INTELSAT 20 (IS-20)","OBJECT_ID":"2012-043A","EPOCH":"2026-03-28T04:50:32.578944","MEAN_MOTION":1.00271085,"ECCENTRICITY":0.0002646,"INCLINATION":0.0161,"RA_OF_ASC_NODE":124.1644,"ARG_OF_PERICENTER":38.5721,"MEAN_ANOMALY":164.0012,"EPHEMERIS_TYPE":0,"CLASSIFICATION_TYPE":"U","NORAD_CAT_ID":38740,"ELEMENT_SET_NO":999,"REV_AT_EPOCH":4993,"BSTAR":0,"MEAN_MOTION_DOT":-4.4e-7,"MEAN_MOTION_DDOT":0},{"OBJECT_NAME":"INTELSAT 21 (IS-21)","OBJECT_ID":"2012-045A","EPOCH":"2026-03-28T12:47:54.238560","MEAN_MOTION":1.00272222,"ECCENTRICITY":0.00016649,"INCLINATION":0.0229,"RA_OF_ASC_NODE":251.1284,"ARG_OF_PERICENTER":109.2899,"MEAN_ANOMALY":319.4938,"EPHEMERIS_TYPE":0,"CLASSIFICATION_TYPE":"U","NORAD_CAT_ID":38749,"ELEMENT_SET_NO":999,"REV_AT_EPOCH":4971,"BSTAR":0,"MEAN_MOTION_DOT":-3.04e-6,"MEAN_MOTION_DDOT":0},{"OBJECT_NAME":"INTELSAT 23 (IS-23)","OBJECT_ID":"2012-057A","EPOCH":"2026-03-28T12:49:16.607136","MEAN_MOTION":1.00268729,"ECCENTRICITY":6.586e-5,"INCLINATION":0.0227,"RA_OF_ASC_NODE":247.4125,"ARG_OF_PERICENTER":125.0267,"MEAN_ANOMALY":312.8014,"EPHEMERIS_TYPE":0,"CLASSIFICATION_TYPE":"U","NORAD_CAT_ID":38867,"ELEMENT_SET_NO":999,"REV_AT_EPOCH":4914,"BSTAR":0,"MEAN_MOTION_DOT":-3.04e-6,"MEAN_MOTION_DDOT":0},{"OBJECT_NAME":"FM-6","OBJECT_ID":"2013-058A","EPOCH":"2026-03-28T12:31:18.329952","MEAN_MOTION":1.00270186,"ECCENTRICITY":0.0002776,"INCLINATION":0.0164,"RA_OF_ASC_NODE":122.5796,"ARG_OF_PERICENTER":55.0234,"MEAN_ANOMALY":79.7589,"EPHEMERIS_TYPE":0,"CLASSIFICATION_TYPE":"U","NORAD_CAT_ID":39360,"ELEMENT_SET_NO":999,"REV_AT_EPOCH":4526,"BSTAR":0,"MEAN_MOTION_DOT":-3.5e-7,"MEAN_MOTION_DDOT":0}]
