INTELSAT 25 (IS-25)     
1 33153U 08034A   26087.32457315 -.00000240  00000+0  00000+0 0  9998
2 33153   2.4997  81.2782 0003241 253.2645 296.5474  1.00288696 64886
GALAXY 19 (G-19)        
1 33376U 08045A   26087.52555328 -.00000159  00000+0  00000+0 0  9991
2 33376   0.0185 238.1791 0002766 123.4909 276.4665  1.00271917 64091
FM-5                    
1 35493U 09034A   26087.52771995 -.00000220  00000+0  00000+0 0  9991
2 35493   0.0290 260.2268 0000754 349.4591  40.0752  1.00272321 45830
INTELSAT 14 (IS-14)     
1 36097U 09064A   26087.46454576 -.00000293  00000+0  00000+0 0  9991
2 36097   0.0179 101.6336 0002419 263.9733 302.5131  1.00271414 59798
INTELSAT 15 (IS-15)     
1 36106U 09067A   26087.57108558 -.00000205  00000+0  00000+0 0  9996
2 36106   0.0165 107.6730 0002282 259.1446 109.9081  1.00271302 40423
DIRECTV 12              
1 36131U 09075A   26087.51086254 -.00000123  00000+0  00000+0 0  9994
2 36131   0.0423   7.0527 0000325 359.1957 260.8473  1.00271645 45741
INTELSAT 16 (IS-16)     
1 36397U 10006A   26087.52962663 -.00000264  00000+0  00000+0 0  9998
2 36397   0.0262  82.7342 0001909 293.0107 284.6554  1.00271451 58847
XM-5                    
1 37185U 10053A   26087.52199993 -.00000042  00000+0  00000+0 0  9998
2 37185   0.0671 270.7657 0003972 268.6212  79.2646  1.00270018 56679
INTELSAT 17 (IS-17)     
1 37238U 10065B   26087.55779341 -.00000021  00000+0  00000+0 0  9991
2 37238   0.0134 190.6963 0002529 184.6246  77.4493  1.00271244 52435
INTELSAT 28 (IS-28)     
1 37392U 11016A   26087.46714579 -.00000243  00000+0  00000+0 0  9997
2 37392   1.5980  83.6047 0004525 284.8744 313.8625  1.00270968 52479
INTELSAT 18 (IS-18)     
1 37834U 11056A   26087.54697647  .00000033  00000+0  00000+0 0  9993
2 37834   0.0262 255.1063 0001768 104.7659 202.9890  1.00273750 53006
INTELSAT 22 (IS-22)     
1 38098U 12011A   26087.55900676 -.00000078  00000+0  00000+0 0  9998
2 38098   0.0253 118.9518 0001712 248.5057  91.8410  1.00271367  6382
INTELSAT 19 (IS-19)     
1 38356U 12030A   26087.58030692  .00000000  00000+0  00000+0 0  9995
2 38356   0.0226 179.5653 0003089 198.1580 183.1933  1.00269409 49647
INTELSAT 20 (IS-20)     
1 38740U 12043A   26087.20176596 -.00000044  00000+0  00000+0 0  9998
2 38740   0.0161 124.1644 0002646  38.5721 164.0012  1.00271085 49931
INTELSAT 21 (IS-21)     
1 38749U 12045A   26087.53326665 -.00000304  00000+0  00000+0 0  9998
2 38749   0.0229 251.1284 0001664 109.2899 319.4938  1.00272222 49710
INTELSAT 23 (IS-23)     
1 38867U 12057A   26087.53421999 -.00000304  00000+0  00000+0 0  9998
2 38867   0.0227 247.4125 0000658 125.0267 312.8014  1.00268729 49144
FM-6                    
1 39360U 13058A   26087.52173993 -.00000035  00000+0  00000+0 0  9997
2 39360   0.0164 122.5796 0002776  55.0234  79.7589  1.00270186 45264
